66109,STARLINK-35545,2025-12-13T17:26:18.718656,2025-12-14T13:04:14.456627,53.1594,143.1354,0.0001016,66.8132,293.2976,15.30214949,10261-2,978,1 66109U 25236Z   25347.72660554  .00030168  00000+0  10261-2 0  9995,2 66109  53.1594 143.1354 0001016  66.8132 293.2976 15.30214949  9786
66110,STARLINK-35427,2025-12-13T18:16:27.113952,2025-12-14T13:04:14.456627,53.1603,143.3524,0.000108,73.2503,286.8616,15.3022216,84687-3,978,1 66110U 25236AA  25347.76142493  .00024824  00000+0  84687-3 0  9994,2 66110  53.1603 143.3524 0001080  73.2503 286.8616 15.30222160  9788
66111,STARLINK-35574,2025-12-13T19:47:26.169216,2025-12-14T13:04:14.456627,53.1605,143.0347,9.3e-06,211.3838,148.7158,15.30184785,59708-3,973,1 66111U 25236AB  25347.82460844  .00017358  00000+0  59708-3 0  9995,2 66111  53.1605 143.0347 0000093 211.3838 148.7158 15.30184785  9732
66112,STARLINK-35531,2025-12-13T17:18:42.192288,2025-12-14T13:04:14.456627,53.1607,143.1018,0.0001326,93.9026,266.2127,15.30220365,88140-3,978,1 66112U 25236AC  25347.72132167  .00025853  00000+0  88140-3 0  9990,2 66112  53.1607 143.1018 0001326  93.9026 266.2127 15.30220365  9786
66113,STARLINK-35491,2025-12-13T18:10:23.362176,2025-12-14T13:04:14.456627,53.1604,143.3267,8.99e-05,87.1967,272.9136,15.30220538,12247-2,978,1 66113U 25236AD  25347.75721484  .00036111  00000+0  12247-2 0  9993,2 66113  53.1604 143.3267 0000899  87.1967 272.9136 15.30220538  9781
66114,STARLINK-35496,2025-12-13T15:49:14.227680,2025-12-14T13:04:14.456627,53.1614,83.149,0.0001731,45.1776,314.9369,15.39620422,12490-2,938,1 66114U 25237A   25347.65919245  .00049888  00000+0  12490-2 0  9993,2 66114  53.1614  83.1490 0001731  45.1776 314.9369 15.39620422  9386
66115,STARLINK-35428,2025-12-13T14:36:37.827360,2025-12-14T13:04:14.456627,53.1602,83.5444,0.0023499,67.3364,293.012,15.35305053,-98841-1,937,1 66115U 25237B   25347.60877115 -.03062907  00000+0 -98841-1 0  9993,2 66115  53.1602  83.5444 0023499  67.3364 293.0120 15.35305053  9378
66116,STARLINK-35573,2025-12-13T23:23:15.535104,2025-12-14T13:04:14.456627,53.16,81.5617,9.39e-05,93.1477,266.9635,15.39620263,18665-2,943,1 66116U 25237C   25347.97448536  .00074998  00000+0  18665-2 0  9990,2 66116  53.1600  81.5617 0000939  93.1477 266.9635 15.39620263  9437
66117,STARLINK-35572,2025-12-13T16:02:36.502656,2025-12-14T13:04:14.456627,53.1609,83.206,0.0001248,98.3122,261.8025,15.39653533,16385-2,938,1 66117U 25237D   25347.66847804  .00065779  00000+0  16385-2 0  9992,2 66117  53.1609  83.2060 0001248  98.3122 261.8025 15.39653533  9383
66118,STARLINK-35468,2025-12-13T16:15:58.865760,2025-12-14T13:04:14.456627,53.1602,83.2646,0.0001189,74.1579,285.9557,15.3963577,18000-2,938,1 66118U 25237E   25347.67776465  .00072321  00000+0  18000-2 0  9995,2 66118  53.1602  83.2646 0001189  74.1579 285.9557 15.39635770  9389
66119,STARLINK-35547,2025-12-13T21:56:27.166848,2025-12-14T13:04:14.456627,53.1581,81.8934,0.0001248,153.3006,206.8063,15.39613991,71809-3,942,1 66119U 25237F   25347.91420332  .00028425  00000+0  71809-3 0  9995,2 66119  53.1581  81.8934 0001248 153.3006 206.8063 15.39613991  9421
66120,STARLINK-35553,2025-12-13T15:55:55.321536,2025-12-14T13:04:14.456627,53.161,83.176,0.0001627,51.4027,308.7124,15.39628043,69440-3,938,1 66120U 25237G   25347.66383474  .00027483  00000+0  69440-3 0  9995,2 66120  53.1610  83.1760 0001627  51.4027 308.7124 15.39628043  9389
66121,STARLINK-35631,2025-12-13T23:16:34.574304,2025-12-14T13:04:14.456627,53.1588,81.5276,0.0002899,64.7888,295.3417,15.39578735,13670-2,943,1 66121U 25237H   25347.96984461  .00054600  00000+0  13670-2 0  9996,2 66121  53.1588  81.5276 0002899  64.7888 295.3417 15.39578735  9436
66122,STARLINK-35653,2025-12-13T23:09:52.888608,2025-12-14T13:04:14.456627,53.1604,81.5012,0.0001753,68.1245,291.9946,15.39623813,15981-2,943,1 66122U 25237J   25347.96519547  .00064071  00000+0  15981-2 0  9996,2 66122  53.1604  81.5012 0001753  68.1245 291.9946 15.39623813  9434
66123,STARLINK-35628,2025-12-13T16:42:34.998624,2025-12-14T13:04:14.456627,53.1586,82.6649,8.44e-05,121.9704,238.1383,15.39599145,17764-2,939,1 66123U 25237K   25347.69623841  .00071275  00000+0  17764-2 0  9995,2 66123  53.1586  82.6649 0000844 121.9704 238.1383 15.39599145  9393
66124,STARLINK-35645,2025-12-13T23:03:11.790432,2025-12-14T13:04:14.456627,53.1593,81.4715,0.0001568,63.6545,296.4621,15.39620528,19963-2,943,1 66124U 25237L   25347.96055313  .00080299  00000+0  19963-2 0  9998,2 66124  53.1593  81.4715 0001568  63.6545 296.4621 15.39620528  9439
66125,STARLINK-35649,2025-12-13T13:22:15.591360,2025-12-14T13:04:14.456627,53.16,83.2198,8.88e-05,85.3063,274.8043,15.39592668,10579-2,937,1 66125U 25237M   25347.55712490  .00042111  00000+0  10579-2 0  9995,2 66125  53.1600  83.2198 0000888  85.3063 274.8043 15.39592668  9378
66126,STARLINK-35658,2025-12-13T13:28:58.591200,2025-12-14T13:04:14.456627,53.1587,83.2473,0.0001585,47.7753,312.3386,15.39623076,-52773-3,937,1 66126U 25237N   25347.56178925 -.00021451  00000+0 -52773-3 0  9995,2 66126  53.1587  83.2473 0001585  47.7753 312.3386 15.39623076  9378
66127,STARLINK-35629,2025-12-13T17:56:21.523776,2025-12-14T13:04:14.456627,53.1589,82.275,0.0004108,336.8255,23.2564,15.38903522,20703-1,940,1 66127U 25237P   25347.74747134  .00879430  00000+0  20703-1 0  9992,2 66127  53.1589  82.2750 0004108 336.8255  23.2564 15.38903522  9407
66128,STARLINK-35612,2025-12-13T22:00:00.999936,2025-12-14T13:04:14.456627,53.1596,82.0897,0.0001342,82.4384,186.4943,15.39603716,-62973-4,592,1 66128U 25237Q   25347.91667824 -.00002916  00000+0 -62973-4 0  9996,2 66128  53.1596  82.0897 0001342  82.4384 186.4943 15.39603716  5929
66129,STARLINK-35632,2025-12-13T16:03:05.081184,2025-12-14T13:04:14.456627,53.1606,83.2045,5.21e-05,45.8617,314.2431,15.39661416,30132-2,938,1 66129U 25237R   25347.66880881  .00122242  00000+0  30132-2 0  9992,2 66129  53.1606  83.2045 0000521  45.8617 314.2431 15.39661416  9388
66130,STARLINK-35637,2025-12-13T15:56:24.398592,2025-12-14T13:04:14.456627,53.161,83.1778,0.0001278,70.1619,289.9523,15.39626789,11878-2,938,1 66130U 25237S   25347.66417128  .00047416  00000+0  11878-2 0  9999,2 66130  53.1610  83.1778 0001278  70.1619 289.9523 15.39626789  9384
66131,STARLINK-35630,2025-12-13T14:16:14.635776,2025-12-14T13:04:14.456627,53.1609,83.4537,0.0001249,61.9333,298.1798,15.39627251,18596-2,937,1 66131U 25237T   25347.59461384  .00074733  00000+0  18596-2 0  9991,2 66131  53.1609  83.4537 0001249  61.9333 298.1798 15.39627251  9378
66132,STARLINK-34412,2025-12-13T14:09:29.717856,2025-12-14T13:04:14.456627,53.161,83.4263,0.0009231,146.0746,214.085,15.39292257,-53100-2,928,1 66132U 25237U   25347.58992729 -.00205356  00000+0 -53100-2 0  9992,2 66132  53.1610  83.4263 0009231 146.0746 214.0850 15.39292257  9289
66133,STARLINK-35520,2025-12-13T15:36:20.593440,2025-12-14T13:04:14.456627,53.1604,83.088,0.0001547,74.3556,285.762,15.39632747,14840-2,938,1 66133U 25237V   25347.65023835  .00059447  00000+0  14840-2 0  9998,2 66133  53.1604  83.0880 0001547  74.3556 285.7620 15.39632747  9381
66134,STARLINK-35525,2025-12-13T23:17:04.701984,2025-12-14T13:04:14.456627,53.1595,81.5302,0.000138,119.6786,240.4356,15.39586338,15673-2,943,1 66134U 25237W   25347.97019331  .00062740  00000+0  15673-2 0  9995,2 66134  53.1595  81.5302 0001380 119.6786 240.4356 15.39586338  9430
66135,STARLINK-34852,2025-12-13T23:10:21.873216,2025-12-14T13:04:14.456627,53.1603,81.5011,0.0001387,107.3964,252.7193,15.3962242,14748-2,939,1 66135U 25237X   25347.96553094  .00059053  00000+0  14748-2 0  9999,2 66135  53.1603  81.5011 0001387 107.3964 252.7193 15.39622420  9390
66136,STARLINK-35592,2025-12-13T16:43:04.291680,2025-12-14T13:04:14.456627,53.159,82.6631,0.0001267,75.2218,284.8927,15.39629664,84327-3,939,1 66136U 25237Y   25347.69657745  .00033489  00000+0  84327-3 0  9994,2 66136  53.1590  82.6631 0001267  75.2218 284.8927 15.39629664  9396
66137,STARLINK-35576,2025-12-13T16:29:42.034848,2025-12-14T13:04:14.456627,53.1594,82.6044,0.0001237,118.6273,241.4856,15.39624678,10764-2,939,1 66137U 25237Z   25347.68729207  .00042903  00000+0  10764-2 0  9991,2 66137  53.1594  82.6044 0001237 118.6273 241.4856 15.39624678  9399
66138,STARLINK-35623,2025-12-13T16:16:19.537824,2025-12-14T13:04:14.456627,53.1604,82.5476,0.0001251,89.6968,270.418,15.39631425,11850-2,939,1 66138U 25237AA  25347.67800391  .00047310  00000+0  11850-2 0  9999,2 66138  53.1604  82.5476 0001251  89.6968 270.4180 15.39631425  9394
66139,STARLINK-35549,2025-12-13T13:29:26.074176,2025-12-14T13:04:14.456627,53.1597,83.2462,0.0001684,114.7032,245.4148,15.39527744,51289-2,937,1 66139U 25237AB  25347.56210734  .00209862  00000+0  51289-2 0  9996,2 66139  53.1597  83.2462 0001684 114.7032 245.4148 15.39527744  9373
66140,STARLINK-35625,2025-12-13T23:03:41.235552,2025-12-14T13:04:14.456627,53.1598,81.4691,0.0003059,81.6665,278.4687,15.39592269,15484-2,943,1 66140U 25237AC  25347.96089393  .00061990  00000+0  15484-2 0  9992,2 66140  53.1598  81.4691 0003059  81.6665 278.4687 15.39592269  9437
66141,STARLINK-35603,2025-12-13T22:00:00.999936,2025-12-14T13:04:14.456627,53.1596,81.4743,0.0001088,61.54,156.4146,15.39586126,-51259-4,592,1 66141U 25237AD  25347.91667824 -.00002446  00000+0 -51259-4 0  9994,2 66141  53.1596  81.4743 0001088  61.5400 156.4146 15.39586126  5928
66146,STARLINK-35318,2025-12-13T22:00:00.999936,2025-12-14T13:04:14.456627,53.1606,101.4542,0.0001012,38.5156,295.765,15.30195271,-21742-3,587,1 66146U 25240A   25347.91667824 -.00006792  00000+0 -21742-3 0  9994,2 66146  53.1606 101.4542 0001012  38.5156 295.7650 15.30195271  5873
66147,STARLINK-33948,2025-12-13T17:15:28.781568,2025-12-14T13:04:14.456627,53.1623,102.3016,0.0001102,95.6816,264.431,15.30200049,11502-2,887,1 66147U 25240B   25347.71908312  .00033862  00000+0  11502-2 0  9991,2 66147  53.1623 102.3016 0001102  95.6816 264.4310 15.30200049  8875
